[{"OBJECT_NAME":"STARLINK-33795","OBJECT_ID":"2025-069AA","EPOCH":"2025-12-09T15:10:44.814432","MEAN_MOTION":15.30221664,"ECCENTRICITY":0.0001282,"INCLINATION":53.1567,"RA_OF_ASC_NODE":200.9818,"ARG_OF_PERICENTER":92.6853,"MEAN_ANOMALY":267.4294,"EPHEMERIS_TYPE":0,"CLASSIFICATION_TYPE":"U","NORAD_CAT_ID":63457,"ELEMENT_SET_NO":999,"REV_AT_EPOCH":3950,"BSTAR":0.0010343,"MEAN_MOTION_DOT":0.00030421,"MEAN_MOTION_DDOT":0},{"OBJECT_NAME":"STARLINK-33756","OBJECT_ID":"2025-069AB","EPOCH":"2025-12-09T21:31:31.105056","MEAN_MOTION":15.30199588,"ECCENTRICITY":8.419e-5,"INCLINATION":53.1575,"RA_OF_ASC_NODE":199.7795,"ARG_OF_PERICENTER":290.384,"MEAN_ANOMALY":69.707,"EPHEMERIS_TYPE":0,"CLASSIFICATION_TYPE":"U","NORAD_CAT_ID":63458,"ELEMENT_SET_NO":999,"REV_AT_EPOCH":3965,"BSTAR":0.0012743806,"MEAN_MOTION_DOT":0.00037575,"MEAN_MOTION_DDOT":0},{"OBJECT_NAME":"STARLINK-33780","OBJECT_ID":"2025-069AC","EPOCH":"2025-12-09T20:42:53.434944","MEAN_MOTION":15.30240915,"ECCENTRICITY":0.00031374,"INCLINATION":53.1591,"RA_OF_ASC_NODE":199.5662,"ARG_OF_PERICENTER":85.4799,"MEAN_ANOMALY":274.656,"EPHEMERIS_TYPE":0,"CLASSIFICATION_TYPE":"U","NORAD_CAT_ID":63459,"ELEMENT_SET_NO":999,"REV_AT_EPOCH":3954,"BSTAR":0.0013148202,"MEAN_MOTION_DOT":0.00038838,"MEAN_MOTION_DDOT":0},{"OBJECT_NAME":"STARLINK-33679","OBJECT_ID":"2025-070A","EPOCH":"2025-12-10T05:51:21.125664","MEAN_MOTION":15.27625064,"ECCENTRICITY":0.00030652,"INCLINATION":43.0005,"RA_OF_ASC_NODE":45.2567,"ARG_OF_PERICENTER":283.5123,"MEAN_ANOMALY":76.5387,"EPHEMERIS_TYPE":0,"CLASSIFICATION_TYPE":"U","NORAD_CAT_ID":63460,"ELEMENT_SET_NO":999,"REV_AT_EPOCH":3929,"BSTAR":0.0021164256,"MEAN_MOTION_DOT":0.00058526,"MEAN_MOTION_DDOT":0},{"OBJECT_NAME":"STARLINK-33706","OBJECT_ID":"2025-070B","EPOCH":"2025-12-10T04:22:44.779872","MEAN_MOTION":15.27615998,"ECCENTRICITY":0.00014846,"INCLINATION":42.9988,"RA_OF_ASC_NODE":45.6226,"ARG_OF_PERICENTER":275.6108,"MEAN_ANOMALY":84.4575,"EPHEMERIS_TYPE":0,"CLASSIFICATION_TYPE":"U","NORAD_CAT_ID":63461,"ELEMENT_SET_NO":999,"REV_AT_EPOCH":3928,"BSTAR":0.0019565723,"MEAN_MOTION_DOT":0.00054034,"MEAN_MOTION_DDOT":0},{"OBJECT_NAME":"STARLINK-33691","OBJECT_ID":"2025-070C","EPOCH":"2025-12-10T04:42:53.007840","MEAN_MOTION":15.27598434,"ECCENTRICITY":4.175e-5,"INCLINATION":42.9999,"RA_OF_ASC_NODE":44.8657,"ARG_OF_PERICENTER":256.1983,"MEAN_ANOMALY":103.8823,"EPHEMERIS_TYPE":0,"CLASSIFICATION_TYPE":"U","NORAD_CAT_ID":63462,"ELEMENT_SET_NO":999,"REV_AT_EPOCH":3924,"BSTAR":0.00081364984,"MEAN_MOTION_DOT":0.00022208,"MEAN_MOTION_DDOT":0},{"OBJECT_NAME":"STARLINK-33696","OBJECT_ID":"2025-070D","EPOCH":"2025-12-10T05:19:53.531904","MEAN_MOTION":15.27584964,"ECCENTRICITY":0.00016776,"INCLINATION":43.0025,"RA_OF_ASC_NODE":45.0595,"ARG_OF_PERICENTER":245.2064,"MEAN_ANOMALY":114.8614,"EPHEMERIS_TYPE":0,"CLASSIFICATION_TYPE":"U","NORAD_CAT_ID":63463,"ELEMENT_SET_NO":999,"REV_AT_EPOCH":3929,"BSTAR":0.00092927543,"MEAN_MOTION_DOT":0.00025402,"MEAN_MOTION_DDOT":0},{"OBJECT_NAME":"STARLINK-33701","OBJECT_ID":"2025-070E","EPOCH":"2025-12-10T04:28:17.578848","MEAN_MOTION":15.27610538,"ECCENTRICITY":4.364e-5,"INCLINATION":42.9984,"RA_OF_ASC_NODE":45.6497,"ARG_OF_PERICENTER":136.5845,"MEAN_ANOMALY":223.5041,"EPHEMERIS_TYPE":0,"CLASSIFICATION_TYPE":"U","NORAD_CAT_ID":63464,"ELEMENT_SET_NO":999,"REV_AT_EPOCH":3928,"BSTAR":0.0016471712,"MEAN_MOTION_DOT":0.00045386,"MEAN_MOTION_DDOT":0},{"OBJECT_NAME":"STARLINK-33685","OBJECT_ID":"2025-070F","EPOCH":"2025-12-10T05:36:32.275296","MEAN_MOTION":15.27604765,"ECCENTRICITY":0.00015527,"INCLINATION":43.0008,"RA_OF_ASC_NODE":45.1425,"ARG_OF_PERICENTER":227.7236,"MEAN_ANOMALY":132.3484,"EPHEMERIS_TYPE":0,"CLASSIFICATION_TYPE":"U","NORAD_CAT_ID":63465,"ELEMENT_SET_NO":999,"REV_AT_EPOCH":3929,"BSTAR":0.0017966376,"MEAN_MOTION_DOT":0.00049548,"MEAN_MOTION_DDOT":0},{"OBJECT_NAME":"STARLINK-33654","OBJECT_ID":"2025-070G","EPOCH":"2025-12-10T05:21:44.188704","MEAN_MOTION":15.27606116,"ECCENTRICITY":0.00019418,"INCLINATION":43.0052,"RA_OF_ASC_NODE":45.0659,"ARG_OF_PERICENTER":262.5608,"MEAN_ANOMALY":97.5023,"EPHEMERIS_TYPE":0,"CLASSIFICATION_TYPE":"U","NORAD_CAT_ID":63466,"ELEMENT_SET_NO":999,"REV_AT_EPOCH":3929,"BSTAR":0.001522252,"MEAN_MOTION_DOT":0.00041899,"MEAN_MOTION_DDOT":0},{"OBJECT_NAME":"STARLINK-33697","OBJECT_ID":"2025-070H","EPOCH":"2025-12-10T05:25:26.639328","MEAN_MOTION":15.27596223,"ECCENTRICITY":3.239e-5,"INCLINATION":43.0024,"RA_OF_ASC_NODE":45.0977,"ARG_OF_PERICENTER":286.726,"MEAN_ANOMALY":73.3556,"EPHEMERIS_TYPE":0,"CLASSIFICATION_TYPE":"U","NORAD_CAT_ID":63467,"ELEMENT_SET_NO":999,"REV_AT_EPOCH":3929,"BSTAR":0.0012776035,"MEAN_MOTION_DOT":0.00035079,"MEAN_MOTION_DDOT":0},{"OBJECT_NAME":"STARLINK-33720","OBJECT_ID":"2025-070J","EPOCH":"2025-12-10T05:27:17.329824","MEAN_MOTION":15.27614816,"ECCENTRICITY":3.53e-5,"INCLINATION":43.0021,"RA_OF_ASC_NODE":45.0936,"ARG_OF_PERICENTER":239.0092,"MEAN_ANOMALY":121.0725,"EPHEMERIS_TYPE":0,"CLASSIFICATION_TYPE":"U","NORAD_CAT_ID":63468,"ELEMENT_SET_NO":999,"REV_AT_EPOCH":3929,"BSTAR":0.0016902792,"MEAN_MOTION_DOT":0.00046594,"MEAN_MOTION_DDOT":0},{"OBJECT_NAME":"STARLINK-33587","OBJECT_ID":"2025-070K","EPOCH":"2025-12-10T05:05:04.889760","MEAN_MOTION":15.27601271,"ECCENTRICITY":0.0001236,"INCLINATION":43.0014,"RA_OF_ASC_NODE":44.9808,"ARG_OF_PERICENTER":245.0798,"MEAN_ANOMALY":114.9925,"EPHEMERIS_TYPE":0,"CLASSIFICATION_TYPE":"U","NORAD_CAT_ID":63469,"ELEMENT_SET_NO":999,"REV_AT_EPOCH":3929,"BSTAR":0.0007337619,"MEAN_MOTION_DOT":0.00019997,"MEAN_MOTION_DDOT":0},{"OBJECT_NAME":"STARLINK-33637","OBJECT_ID":"2025-070L","EPOCH":"2025-12-10T04:33:51.496704","MEAN_MOTION":15.27603421,"ECCENTRICITY":0.00014301,"INCLINATION":43.0011,"RA_OF_ASC_NODE":45.677,"ARG_OF_PERICENTER":285.7046,"MEAN_ANOMALY":74.3648,"EPHEMERIS_TYPE":0,"CLASSIFICATION_TYPE":"U","NORAD_CAT_ID":63470,"ELEMENT_SET_NO":999,"REV_AT_EPOCH":3928,"BSTAR":0.0012129673,"MEAN_MOTION_DOT":0.00033291,"MEAN_MOTION_DDOT":0},{"OBJECT_NAME":"STARLINK-33744","OBJECT_ID":"2025-070M","EPOCH":"2025-12-10T04:11:37.941216","MEAN_MOTION":15.27593795,"ECCENTRICITY":0.00025392,"INCLINATION":43.0022,"RA_OF_ASC_NODE":45.5605,"ARG_OF_PERICENTER":282.7659,"MEAN_ANOMALY":77.2909,"EPHEMERIS_TYPE":0,"CLASSIFICATION_TYPE":"U","NORAD_CAT_ID":63471,"ELEMENT_SET_NO":999,"REV_AT_EPOCH":3928,"BSTAR":0.0024400781,"MEAN_MOTION_DOT":0.00067532,"MEAN_MOTION_DDOT":0},{"OBJECT_NAME":"STARLINK-33766","OBJECT_ID":"2025-070N","EPOCH":"2025-12-10T04:24:35.294112","MEAN_MOTION":15.27621128,"ECCENTRICITY":9.824e-5,"INCLINATION":42.9974,"RA_OF_ASC_NODE":45.629,"ARG_OF_PERICENTER":264.6857,"MEAN_ANOMALY":95.3883,"EPHEMERIS_TYPE":0,"CLASSIFICATION_TYPE":"U","NORAD_CAT_ID":63472,"ELEMENT_SET_NO":999,"REV_AT_EPOCH":3928,"BSTAR":0.0019143631,"MEAN_MOTION_DOT":0.00052862,"MEAN_MOTION_DDOT":0}]
