STARLINK-33795          
1 63457U 25069AA  25343.63246313  .00030421  00000+0  10343-2 0  9994
2 63457  53.1567 200.9818 0001282  92.6853 267.4294 15.30221664 39509
STARLINK-33756          
1 63458U 25069AB  25343.89688779  .00037575  00000+0  12744-2 0  9993
2 63458  53.1575 199.7795 0000841 290.3840  69.7070 15.30199588 39651
STARLINK-33780          
1 63459U 25069AC  25343.86311846  .00038838  00000+0  13148-2 0  9991
2 63459  53.1591 199.5662 0003137  85.4799 274.6560 15.30240915 39548
STARLINK-33679          
1 63460U 25070A   25344.24399451  .00058526  00000+0  21164-2 0  9999
2 63460  43.0005  45.2567 0003065 283.5123  76.5387 15.27625064 39297
STARLINK-33706          
1 63461U 25070B   25344.18246273  .00054034  00000+0  19566-2 0  9999
2 63461  42.9988  45.6226 0001484 275.6108  84.4575 15.27615998 39281
STARLINK-33691          
1 63462U 25070C   25344.19644685  .00022208  00000+0  81365-3 0  9995
2 63462  42.9999  44.8657 0000417 256.1983 103.8823 15.27598434 39246
STARLINK-33696          
1 63463U 25070D   25344.22214736  .00025402  00000+0  92928-3 0  9996
2 63463  43.0025  45.0595 0001677 245.2064 114.8614 15.27584964 39299
STARLINK-33701          
1 63464U 25070E   25344.18631457  .00045386  00000+0  16472-2 0  9997
2 63464  42.9984  45.6497 0000436 136.5845 223.5041 15.27610538 39288
STARLINK-33685          
1 63465U 25070F   25344.23370689  .00049548  00000+0  17966-2 0  9994
2 63465  43.0008  45.1425 0001552 227.7236 132.3484 15.27604765 39295
STARLINK-33654          
1 63466U 25070G   25344.22342811  .00041899  00000+0  15223-2 0  9995
2 63466  43.0052  45.0659 0001941 262.5608  97.5023 15.27606116 39298
STARLINK-33697          
1 63467U 25070H   25344.22600277  .00035079  00000+0  12776-2 0  9992
2 63467  43.0024  45.0977 0000323 286.7260  73.3556 15.27596223 39296
STARLINK-33720          
1 63468U 25070J   25344.22728391  .00046594  00000+0  16903-2 0  9991
2 63468  43.0021  45.0936 0000353 239.0092 121.0725 15.27614816 39294
STARLINK-33587          
1 63469U 25070K   25344.21186215  .00019997  00000+0  73376-3 0  9999
2 63469  43.0014  44.9808 0001236 245.0798 114.9925 15.27601271 39298
STARLINK-33637          
1 63470U 25070L   25344.19017936  .00033291  00000+0  12130-2 0  9994
2 63470  43.0011  45.6770 0001430 285.7046  74.3648 15.27603421 39285
STARLINK-33744          
1 63471U 25070M   25344.17474469  .00067532  00000+0  24401-2 0  9990
2 63471  43.0022  45.5605 0002539 282.7659  77.2909 15.27593795 39286
STARLINK-33766          
1 63472U 25070N   25344.18374183  .00052862  00000+0  19144-2 0  9992
2 63472  42.9974  45.6290 0000982 264.6857  95.3883 15.27621128 39285
